COSMOS 2058             
1 20465U 90010A   26185.53987353  .00004347  00000+0  25060-3 0  9995
2 20465  82.4686 292.2429 0008257 294.4792  65.5577 15.12122284959895
SL-14 R/B               
1 20466U 90010B   26185.90532423  .00000513  00000+0  59202-4 0  9998
2 20466  82.5025 157.3050 0018175 274.0298  85.8840 14.83658769945869
SL-14 R/B               
1 20511U 90018B   26185.22592256  .00000493  00000+0  58710-4 0  9992
2 20511  82.5221 114.1829 0017630  70.3890 289.9225 14.82228417939840
HST                     
1 20580U 90037B   26185.74496624  .00011431  00000+0  36310-3 0  9993
2 20580  28.4738 320.5597 0001727 359.9482   0.1113 15.30970466791269
SL-16 R/B               
1 20625U 90046B   26185.62096977 -.00000174  00000+0 -65051-4 0  9996
2 20625  70.9988  52.3344 0012487 133.0701 227.1469 14.15023778864935
COSMOS 2084             
1 20663U 90055A   26185.72186532  .00003535  00000+0  25353-3 0  9998
2 20663  62.7911 296.2393 0006847 306.9519  53.0954 15.06196439953947
SL-6 R/B(2)             
1 20666U 90055D   26185.53516710  .00002264  00000+0  17424-3 0  9993
2 20666  62.7800 216.3405 0043434   7.4944 352.6795 15.04060712955767
SL-8 R/B                
1 20775U 90078B   26185.62293098  .00035826  00000+0  10138-2 0  9994
2 20775  82.9025 145.8805 0345698 339.5280  19.2356 14.93222715826722
SL-8 R/B                
1 21088U 91006B   26185.44602708  .00000097  00000+0  82171-4 0  9996
2 21088  82.9420  83.1946 0023820  69.0483 104.7141 13.77507798780144
OKEAN-3                 
1 21397U 91039A   26185.81987908  .00003139  00000+0  21669-3 0  9998
2 21397  82.5141 223.2823 0012088 293.0515  66.9437 15.05404013882658
COSMOS 2151             
1 21422U 91042A   26185.86538490  .00002467  00000+0  19352-3 0  9993
2 21422  82.4977 330.6190 0012973  29.8801 330.3161 15.00491463880761
SL-14 R/B               
1 21423U 91042B   26185.77623670  .00000515  00000+0  62015-4 0  9996
2 21423  82.4935 110.4021 0016067 211.9863 148.0377 14.81914321870418
ERS-1                   
1 21574U 91050A   26185.81969382  .00000242  00000+0  91972-4 0  9991
2 21574  98.7794 206.9483 0031258 212.8950 147.0292 14.39528191832587
ARIANE 40 R/B           
1 21610U 91050F   26185.59265726  .00000440  00000+0  14381-3 0  9996
2 21610  98.1866 233.3309 0004433  84.2019 275.9677 14.42968255835859
INTERCOSMOS 25          
1 21819U 91086A   26185.61010999  .00001291  00000+0  25564-3 0  9999
2 21819  82.6025 239.2665 1484080 224.7723 122.3819 12.12225175510854
SL-8 R/B                
1 21876U 92008B   26185.93263370  .00000165  00000+0  15337-3 0  9991
2 21876  82.9262 180.5932 0035023 164.7682 213.0022 13.75981664725543
SL-8 R/B                
1 21938U 92020B   26185.93782896  .00000044  00000+0  29809-4 0  9999
2 21938  82.9295  66.6721 0028502 333.1560  38.0710 13.75550264717255
USA 81                  
1 21949U 92023A   26185.66902889  .00000230  00000+0  77839-4 0  9993
2 21949  85.0061  63.9168 0002410  70.1254 290.0198 14.32403269111530
COSMOS 2219             
1 22219U 92076A   26185.59198944  .00000102  00000+0  78328-4 0  9995
2 22219  71.0610 133.6876 0017563  14.6486 345.5141 14.14109845734901
SL-16 R/B               
1 22220U 92076B   26185.76977257 -.00000057  00000+0 -44231-5 0  9996
2 22220  71.0012 301.7423 0015030 275.5810 245.1415 14.16874174738416
COSMOS 2221             
1 22236U 92080A   26185.65685836  .00002228  00000+0  19309-3 0  9991
2 22236  82.5035 167.0266 0014895 153.0427 207.1572 14.96584376798288
SL-16 R/B               
1 22285U 92093B   26185.55646871  .00000233  00000+0  14365-3 0  9995
2 22285  71.0220 118.9285 0002930 156.2647 203.8611 14.15465849729693
COSMOS 2228             
1 22286U 92094A   26185.79352360  .00002715  00000+0  22932-3 0  9996
2 22286  82.5186 125.1789 0015961 267.8776  92.0619 14.97654177793580
SL-16 R/B               
1 22566U 93016B   26185.82105056 -.00000245  00000+0 -10133-3 0  9992
2 22566  71.0087 329.1694 0009160 156.5727 203.5815 14.15312874718746
COSMOS 2242             
1 22626U 93024A   26185.89473231  .00002312  00000+0  19863-3 0  9992
2 22626  82.5190 154.6011 0014391 271.4031  88.5543 14.96963026797922
SL-16 R/B               
1 22803U 93059B   26185.57034792  .00000200  00000+0  12272-3 0  9998
2 22803  70.9903 124.6460 0016081  25.3207 334.8701 14.17250875696099
ARIANE 40 R/B           
1 22830U 93061H   26185.66239981  .00000315  00000+0  13102-3 0  9998
2 22830  98.4811 252.1560 0009562 300.9853  59.0391 14.32915909710850
COSMOS 2278             
1 23087U 94023A   26185.71542043 -.00000204  00000+0 -81865-4 0  9995
2 23087  71.0544 290.2522 0010136 221.4672 138.5682 14.14395871661357
SL-16 R/B               
1 23088U 94023B   26185.70936233 -.00000209  00000+0 -83010-4 0  9992
2 23088  70.9977 185.1331 0001669 163.8821 196.2355 14.15025645662643
SL-16 R/B               
1 23343U 94074B   26185.82013618  .00000649  00000+0  93372-4 0  9996
2 23343  97.6985 211.8059 0006245 186.7376 346.3751 14.79518947704568
