OBJECT_NAME,OBJECT_ID,EPOCH,MEAN_MOTION,ECCENTRICITY,INCLINATION,RA_OF_ASC_NODE,ARG_OF_PERICENTER,MEAN_ANOMALY,EPHEMERIS_TYPE,CLASSIFICATION_TYPE,NORAD_CAT_ID,ELEMENT_SET_NO,REV_AT_EPOCH,BSTAR,MEAN_MOTION_DOT,MEAN_MOTION_DDOT
COSMOS 2058,1990-010A,2026-07-04T12:57:25.072992,15.12122284,.00082578,82.4686,292.2429,294.4792,65.5577,0,U,20465,999,95989,.25059819E-3,.4347E-4,0
SL-14 R/B,1990-010B,2026-07-04T21:43:40.013472,14.83658769,.00181753,82.5025,157.3050,274.0298,85.8840,0,U,20466,999,94586,.59202308E-4,.513E-5,0
SL-14 R/B,1990-018B,2026-07-04T05:25:19.709184,14.82228417,.00176303,82.5221,114.1829,70.3890,289.9225,0,U,20511,999,93984,.58709853E-4,.493E-5,0
HST,1990-037B,2026-07-04T17:52:45.083136,15.30970466,.00017271,28.4738,320.5597,359.9482,0.1113,0,U,20580,999,79126,.36310391E-3,.11431E-3,0
SL-16 R/B,1990-046B,2026-07-04T14:54:11.788128,14.15023778,.00124878,70.9988,52.3344,133.0701,227.1469,0,U,20625,999,86493,-.65050828E-4,-.174E-5,0
COSMOS 2084,1990-055A,2026-07-04T17:19:29.163648,15.06196439,.00068478,62.7911,296.2393,306.9519,53.0954,0,U,20663,999,95394,.25352788E-3,.3535E-4,0
SL-6 R/B(2),1990-055D,2026-07-04T12:50:38.437440,15.04060712,.00434345,62.7800,216.3405,7.4944,352.6795,0,U,20666,999,95576,.17424471E-3,.2264E-4,0
SL-8 R/B,1990-078B,2026-07-04T14:57:01.236672,14.93222715,.03456988,82.9025,145.8805,339.5280,19.2356,0,U,20775,999,82672,.10138415E-2,.35826E-3,0
SL-8 R/B,1991-006B,2026-07-04T10:42:16.739712,13.77507798,.00238204,82.9420,83.1946,69.0483,104.7141,0,U,21088,999,78014,.82170703E-4,.97E-6,0
OKEAN-3,1991-039A,2026-07-04T19:40:37.552512,15.05404013,.00120882,82.5141,223.2823,293.0515,66.9437,0,U,21397,999,88265,.21668627E-3,.3139E-4,0
COSMOS 2151,1991-042A,2026-07-04T20:46:09.255360,15.00491463,.00129739,82.4977,330.6190,29.8801,330.3161,0,U,21422,999,88076,.1935201E-3,.2467E-4,0
SL-14 R/B,1991-042B,2026-07-04T18:37:46.850880,14.81914321,.00160672,82.4935,110.4021,211.9863,148.0377,0,U,21423,999,87041,.62015021E-4,.515E-5,0
ERS-1,1991-050A,2026-07-04T19:40:21.546048,14.39528191,.00312585,98.7794,206.9483,212.8950,147.0292,0,U,21574,999,83258,.91971508E-4,.242E-5,0
ARIANE 40 R/B,1991-050F,2026-07-04T14:13:25.587264,14.42968255,.00044337,98.1866,233.3309,84.2019,275.9677,0,U,21610,999,83585,.14381224E-3,.44E-5,0
INTERCOSMOS 25,1991-086A,2026-07-04T14:38:33.503136,12.12225175,.14840809,82.6025,239.2665,224.7723,122.3819,0,U,21819,999,51085,.25563822E-3,.1291E-4,0
SL-8 R/B,1992-008B,2026-07-04T22:22:59.551680,13.75981664,.00350237,82.9262,180.5932,164.7682,213.0022,0,U,21876,999,72554,.15337255E-3,.165E-5,0
SL-8 R/B,1992-020B,2026-07-04T22:30:28.422144,13.75550264,.0028502,82.9295,66.6721,333.1560,38.0710,0,U,21938,999,71725,.29809073E-4,.44E-6,0
USA 81,1992-023A,2026-07-04T16:03:24.096096,14.32403269,.00024104,85.0061,63.9168,70.1254,290.0198,0,U,21949,999,11153,.77838509E-4,.23E-5,0
COSMOS 2219,1992-076A,2026-07-04T14:12:27.887616,14.14109845,.00175637,71.0610,133.6876,14.6486,345.5141,0,U,22219,999,73490,.7832787E-4,.102E-5,0
SL-16 R/B,1992-076B,2026-07-04T18:28:28.350048,14.16874174,.00150303,71.0012,301.7423,275.5810,245.1415,0,U,22220,999,73841,-.4423139E-5,-.57E-6,0
COSMOS 2221,1992-080A,2026-07-04T15:45:52.562304,14.96584376,.00148957,82.5035,167.0266,153.0427,207.1572,0,U,22236,999,79828,.19309423E-3,.2228E-4,0
SL-16 R/B,1992-093B,2026-07-04T13:21:18.896544,14.15465849,.00029302,71.0220,118.9285,156.2647,203.8611,0,U,22285,999,72969,.14364519E-3,.233E-5,0
COSMOS 2228,1992-094A,2026-07-04T19:02:40.439040,14.97654177,.00159615,82.5186,125.1789,267.8776,92.0619,0,U,22286,999,79358,.2293243E-3,.2715E-4,0
SL-16 R/B,1993-016B,2026-07-04T19:42:18.768384,14.15312874,.00091608,71.0087,329.1694,156.5727,203.5815,0,U,22566,999,71874,-.10132725E-3,-.245E-5,0
COSMOS 2242,1993-024A,2026-07-04T21:28:24.871584,14.96963026,.00143915,82.5190,154.6011,271.4031,88.5543,0,U,22626,999,79792,.19862988E-3,.2312E-4,0
SL-16 R/B,1993-059B,2026-07-04T13:41:18.060288,14.17250875,.00160816,70.9903,124.6460,25.3207,334.8701,0,U,22803,999,69609,.12272134E-3,.2E-5,0
ARIANE 40 R/B,1993-061H,2026-07-04T15:53:51.343584,14.32915909,.00095626,98.4811,252.1560,300.9853,59.0391,0,U,22830,999,71085,.13101805E-3,.315E-5,0
COSMOS 2278,1994-023A,2026-07-04T17:10:12.325152,14.14395871,.00101361,71.0544,290.2522,221.4672,138.5682,0,U,23087,999,66135,-.81864831E-4,-.204E-5,0
SL-16 R/B,1994-023B,2026-07-04T17:01:28.905312,14.15025645,.00016698,70.9977,185.1331,163.8821,196.2355,0,U,23088,999,66264,-.83010025E-4,-.209E-5,0
SL-16 R/B,1994-074B,2026-07-04T19:40:59.765952,14.79518947,.0006245,97.6985,211.8059,186.7376,346.3751,0,U,23343,999,70456,.93371664E-4,.649E-5,0
